{"type": "FeatureCollection", "features": [ {"type": "Feature", "properties": {"norad_id": 66959, "name": "STARLINK-35887", "group": "last-30-days", "lat": -42.471592810309424, "lon": -3.3561265149298403, "alt_km": 360.6693701803433, "timestamp": "2025-12-24T03:53:28.363773+00:00", "meta": {"OBJECT_NAME": "STARLINK-35887", "OBJECT_ID": "2025-288A", "EPOCH": "2025-12-23T20:00:01.000224", "MEAN_MOTION": 15.71557835, "ECCENTRICITY": 0.000124, "INCLINATION": 43.0003, "RA_OF_ASC_NODE": 99.401, "ARG_OF_PERICENTER": 284.5571, "MEAN_ANOMALY": 275.9012, "EPHEMERIS_TYPE": 0, "CLASSIFICATION_TYPE": "U", "NORAD_CAT_ID": 66959, "ELEMENT_SET_NO": 999, "REV_AT_EPOCH": 361, "BSTAR": -0.016181, "MEAN_MOTION_DOT": -0.0186315, "MEAN_MOTION_DDOT": 0}, "tle": {"line1": "1 66959U 25288A   25357.83334491 -.01863150  00000+0 -16181-1 0  9990", "line2": "2 66959  43.0003  99.4010 0001240 284.5571 275.9012 15.71557835  3612"}}, "geometry": {"type": "Point", "coordinates": [-3.3561265149298403, -42.471592810309424]}}, {"type": "Feature", "properties": {"norad_id": 66960, "name": "STARLINK-35879", "group": "last-30-days", "lat": -42.68762350487125, "lon": -0.7650225774975442, "alt_km": 360.68637979563937, "timestamp": "2025-12-24T03:53:28.363783+00:00", "meta": {"OBJECT_NAME": "STARLINK-35879", "OBJECT_ID": "2025-288B", "EPOCH": "2025-12-23T20:00:01.000224", "MEAN_MOTION": 15.71573232, "ECCENTRICITY": 0.0001186, "INCLINATION": 43.0004, "RA_OF_ASC_NODE": 99.396, "ARG_OF_PERICENTER": 280.6789, "MEAN_ANOMALY": 281.7001, "EPHEMERIS_TYPE": 0, "CLASSIFICATION_TYPE": "U", "NORAD_CAT_ID": 66960, "ELEMENT_SET_NO": 999, "REV_AT_EPOCH": 361, "BSTAR": -0.016456, "MEAN_MOTION_DOT": -0.01930269, "MEAN_MOTION_DDOT": 0}, "tle": {"line1": "1 66960U 25288B   25357.83334491 -.01930269  00000+0 -16456-1 0  9993", "line2": "2 66960  43.0004  99.3960 0001186 280.6789 281.7001 15.71573232  3617"}}, "geometry": {"type": "Point", "coordinates": [-0.7650225774975442, -42.68762350487125]}}, {"type": "Feature", "properties": {"norad_id": 66961, "name": "STARLINK-35761", "group": "last-30-days", "lat": -42.84402601942478, "lon": 1.8332028443670985, "alt_km": 360.63610988970504, "timestamp": "2025-12-24T03:53:28.363793+00:00", "meta": {"OBJECT_NAME": "STARLINK-35761", "OBJECT_ID": "2025-288C", "EPOCH": "2025-12-23T20:00:01.000224", "MEAN_MOTION": 15.71570042, "ECCENTRICITY": 0.0001227, "INCLINATION": 43.0003, "RA_OF_ASC_NODE": 99.3914, "ARG_OF_PERICENTER": 276.8706, "MEAN_ANOMALY": 287.4291, "EPHEMERIS_TYPE": 0, "CLASSIFICATION_TYPE": "U", "NORAD_CAT_ID": 66961, "ELEMENT_SET_NO": 999, "REV_AT_EPOCH": 361, "BSTAR": -0.016425, "MEAN_MOTION_DOT": -0.01926811, "MEAN_MOTION_DDOT": 0}, "tle": {"line1": "1 66961U 25288C   25357.83334491 -.01926811  00000+0 -16425-1 0  9998", "line2": "2 66961  43.0003  99.3914 0001227 276.8706 287.4291 15.71570042  3618"}}, "geometry": {"type": "Point", "coordinates": [1.8332028443670985, -42.84402601942478]}}, {"type": "Feature", "properties": {"norad_id": 66962, "name": "STARLINK-35874", "group": "last-30-days", "lat": -42.941760320974936, "lon": 4.454922040976741, "alt_km": 360.7243353374197, "timestamp": "2025-12-24T03:53:28.363803+00:00", "meta": {"OBJECT_NAME": "STARLINK-35874", "OBJECT_ID": "2025-288D", "EPOCH": "2025-12-23T20:00:01.000224", "MEAN_MOTION": 15.7161451, "ECCENTRICITY": 0.0001216, "INCLINATION": 43.0004, "RA_OF_ASC_NODE": 99.3862, "ARG_OF_PERICENTER": 283.7307, "MEAN_ANOMALY": 282.4878, "EPHEMERIS_TYPE": 0, "CLASSIFICATION_TYPE": "U", "NORAD_CAT_ID": 66962, "ELEMENT_SET_NO": 999, "REV_AT_EPOCH": 361, "BSTAR": -0.017194, "MEAN_MOTION_DOT": -0.02009663, "MEAN_MOTION_DDOT": 0}, "tle": {"line1": "1 66962U 25288D   25357.83334491 -.02009663  00000+0 -17194-1 0  9991", "line2": "2 66962  43.0004  99.3862 0001216 283.7307 282.4878 15.71614510  3619"}}, "geometry": {"type": "Point", "coordinates": [4.454922040976741, -42.941760320974936]}}, {"type": "Feature", "properties": {"norad_id": 66963, "name": "STARLINK-36133", "group": "last-30-days", "lat": -42.97906868489589, "lon": 7.0457937287660695, "alt_km": 360.5680969246696, "timestamp": "2025-12-24T03:53:28.363817+00:00", "meta": {"OBJECT_NAME": "STARLINK-36133", "OBJECT_ID": "2025-288E", "EPOCH": "2025-12-23T20:00:01.000224", "MEAN_MOTION": 15.71578332, "ECCENTRICITY": 0.0001338, "INCLINATION": 43.0004, "RA_OF_ASC_NODE": 99.3817, "ARG_OF_PERICENTER": 280.3534, "MEAN_ANOMALY": 287.775, "EPHEMERIS_TYPE": 0, "CLASSIFICATION_TYPE": "U", "NORAD_CAT_ID": 66963, "ELEMENT_SET_NO": 999, "REV_AT_EPOCH": 361, "BSTAR": -0.016526, "MEAN_MOTION_DOT": -0.01938048, "MEAN_MOTION_DDOT": 0}, "tle": {"line1": "1 66963U 25288E   25357.83334491 -.01938048  00000+0 -16526-1 0  9997", "line2": "2 66963  43.0004  99.3817 0001338 280.3534 287.7750 15.71578332  3618"}}, "geometry": {"type": "Point", "coordinates": [7.0457937287660695, -42.97906868489589]}}, {"type": "Feature", "properties": {"norad_id": 66964, "name": "STARLINK-36104", "group": "last-30-days", "lat": -42.9573521763446, "lon": 9.654715550205312, "alt_km": 360.64185867712695, "timestamp": "2025-12-24T03:53:28.363829+00:00", "meta": {"OBJECT_NAME": "STARLINK-36104", "OBJECT_ID": "2025-288F", "EPOCH": "2025-12-23T20:00:01.000224", "MEAN_MOTION": 15.71573254, "ECCENTRICITY": 0.0001216, "INCLINATION": 43.0004, "RA_OF_ASC_NODE": 99.3764, "ARG_OF_PERICENTER": 281.2529, "MEAN_ANOMALY": 288.7928, "EPHEMERIS_TYPE": 0, "CLASSIFICATION_TYPE": "U", "NORAD_CAT_ID": 66964, "ELEMENT_SET_NO": 999, "REV_AT_EPOCH": 361, "BSTAR": -0.016445, "MEAN_MOTION_DOT": -0.0192909, "MEAN_MOTION_DDOT": 0}, "tle": {"line1": "1 66964U 25288F   25357.83334491 -.01929090  00000+0 -16445-1 0  9995", "line2": "2 66964  43.0004  99.3764 0001216 281.2529 288.7928 15.71573254  3615"}}, "geometry": {"type": "Point", "coordinates": [9.654715550205312, -42.9573521763446]}}, {"type": "Feature", "properties": {"norad_id": 66965, "name": "STARLINK-36067", "group": "last-30-days", "lat": -42.875924193415656, "lon": 12.264983082341415, "alt_km": 360.5997188172623, "timestamp": "2025-12-24T03:53:28.363840+00:00", "meta": {"OBJECT_NAME": "STARLINK-36067", "OBJECT_ID": "2025-288G", "EPOCH": "2025-12-23T20:00:01.000224", "MEAN_MOTION": 15.71577124, "ECCENTRICITY": 0.0001261, "INCLINATION": 43.0003, "RA_OF_ASC_NODE": 99.372, "ARG_OF_PERICENTER": 280.3491, "MEAN_ANOMALY": 291.6137, "EPHEMERIS_TYPE": 0, "CLASSIFICATION_TYPE": "U", "NORAD_CAT_ID": 66965, "ELEMENT_SET_NO": 999, "REV_AT_EPOCH": 361, "BSTAR": -0.0165, "MEAN_MOTION_DOT": -0.01935144, "MEAN_MOTION_DDOT": 0}, "tle": {"line1": "1 66965U 25288G   25357.83334491 -.01935144  00000+0 -16500-1 0  9995", "line2": "2 66965  43.0003  99.3720 0001261 280.3491 291.6137 15.71577124  3610"}}, "geometry": {"type": "Point", "coordinates": [12.264983082341415, -42.875924193415656]}}, {"type": "Feature", "properties": {"norad_id": 66966, "name": "STARLINK-36139", "group": "last-30-days", "lat": -42.73547170772588, "lon": 14.862784854949938, "alt_km": 360.50624691620214, "timestamp": "2025-12-24T03:53:28.363852+00:00", "meta": {"OBJECT_NAME": "STARLINK-36139", "OBJECT_ID": "2025-288H", "EPOCH": "2025-12-23T20:00:01.000224", "MEAN_MOTION": 15.71573161, "ECCENTRICITY": 0.0001373, "INCLINATION": 43.0003, "RA_OF_ASC_NODE": 99.3672, "ARG_OF_PERICENTER": 278.3208, "MEAN_ANOMALY": 295.5603, "EPHEMERIS_TYPE": 0, "CLASSIFICATION_TYPE": "U", "NORAD_CAT_ID": 66966, "ELEMENT_SET_NO": 999, "REV_AT_EPOCH": 361, "BSTAR": -0.016445, "MEAN_MOTION_DOT": -0.01929228, "MEAN_MOTION_DDOT": 0}, "tle": {"line1": "1 66966U 25288H   25357.83334491 -.01929228  00000+0 -16445-1 0  9990", "line2": "2 66966  43.0003  99.3672 0001373 278.3208 295.5603 15.71573161  3612"}}, "geometry": {"type": "Point", "coordinates": [14.862784854949938, -42.73547170772588]}}, {"type": "Feature", "properties": {"norad_id": 66967, "name": "STARLINK-36136", "group": "last-30-days", "lat": -42.536091077538856, "lon": 17.44944185772852, "alt_km": 360.52473719386217, "timestamp": "2025-12-24T03:53:28.363862+00:00", "meta": {"OBJECT_NAME": "STARLINK-36136", "OBJECT_ID": "2025-288J", "EPOCH": "2025-12-23T20:00:01.000224", "MEAN_MOTION": 15.71575854, "ECCENTRICITY": 0.0001331, "INCLINATION": 43.0003, "RA_OF_ASC_NODE": 99.362, "ARG_OF_PERICENTER": 275.238, "MEAN_ANOMALY": 300.5606, "EPHEMERIS_TYPE": 0, "CLASSIFICATION_TYPE": "U", "NORAD_CAT_ID": 66967, "ELEMENT_SET_NO": 999, "REV_AT_EPOCH": 361, "BSTAR": -0.01649, "MEAN_MOTION_DOT": -0.01934132, "MEAN_MOTION_DDOT": 0}, "tle": {"line1": "1 66967U 25288J   25357.83334491 -.01934132  00000+0 -16490-1 0  9991", "line2": "2 66967  43.0003  99.3620 0001331 275.2380 300.5606 15.71575854  3618"}}, "geometry": {"type": "Point", "coordinates": [17.44944185772852, -42.536091077538856]}}, {"type": "Feature", "properties": {"norad_id": 66968, "name": "STARLINK-36152", "group": "last-30-days", "lat": -42.27958562631396, "lon": 20.009895980211382, "alt_km": 360.5680985595818, "timestamp": "2025-12-24T03:53:28.363872+00:00", "meta": {"OBJECT_NAME": "STARLINK-36152", "OBJECT_ID": "2025-288K", "EPOCH": "2025-12-23T20:00:01.000224", "MEAN_MOTION": 15.71575167, "ECCENTRICITY": 0.0001261, "INCLINATION": 43.0003, "RA_OF_ASC_NODE": 99.3573, "ARG_OF_PERICENTER": 280.7236, "MEAN_ANOMALY": 296.9914, "EPHEMERIS_TYPE": 0, "CLASSIFICATION_TYPE": "U", "NORAD_CAT_ID": 66968, "ELEMENT_SET_NO": 999, "REV_AT_EPOCH": 361, "BSTAR": -0.016489, "MEAN_MOTION_DOT": -0.0193385, "MEAN_MOTION_DDOT": 0}, "tle": {"line1": "1 66968U 25288K   25357.83334491 -.01933850  00000+0 -16489-1 0  9996", "line2": "2 66968  43.0003  99.3573 0001261 280.7236 296.9914 15.71575167  3616"}}, "geometry": {"type": "Point", "coordinates": [20.009895980211382, -42.27958562631396]}}]}